[{"OBJECT_NAME":"SENTINEL-6B","OBJECT_ID":"2025-264A","EPOCH":"2026-03-09T22:18:21.602016","MEAN_MOTION":12.80929483,"ECCENTRICITY":0.00079901,"INCLINATION":66.0446,"RA_OF_ASC_NODE":341.3405,"ARG_OF_PERICENTER":270.6585,"MEAN_ANOMALY":89.3515,"EPHEMERIS_TYPE":0,"CLASSIFICATION_TYPE":"U","NORAD_CAT_ID":66514,"ELEMENT_SET_NO":999,"REV_AT_EPOCH":1445,"BSTAR":5.6113085e-5,"MEAN_MOTION_DOT":-4.8e-7,"MEAN_MOTION_DDOT":0},{"OBJECT_NAME":"FENGYUN 1C DEB","OBJECT_ID":"1999-025AJR","EPOCH":"2026-03-09T01:24:58.868352","MEAN_MOTION":13.31238196,"ECCENTRICITY":0.0409107,"INCLINATION":100.0526,"RA_OF_ASC_NODE":114.6892,"ARG_OF_PERICENTER":21.4872,"MEAN_ANOMALY":7.8987,"EPHEMERIS_TYPE":0,"CLASSIFICATION_TYPE":"U","NORAD_CAT_ID":30527,"ELEMENT_SET_NO":999,"REV_AT_EPOCH":92505,"BSTAR":0.0013747353,"MEAN_MOTION_DOT":9.99e-6,"MEAN_MOTION_DDOT":0}]
